     2.100          NAVIGATION                              RINEX VERSION / TYPE
fic2rin                                 10/22/2015 00:21:07 PGM / RUN BY / DATE
                                                            END OF HEADER
23 15 10 21 18  0  0.0 -.140097923577D-03 -.216004991671D-11  .000000000000D+00
     .610000000000D+02  .135312500000D+02  .504735309966D-08 -.173999114715D+01
     .555068254471D-06  .103825741680D-01  .637397170067D-05  .515378060150D+04
     .324000000000D+06  .819563865662D-07 -.246931136690D+01 -.100582838058D-06
     .947552108252D+00  .247656250000D+03 -.262373294707D+01 -.825927260328D-08
    -.176078762959D-09  .100000000000D+01  .186700000000D+04  .000000000000D+00
     .240000000000D+01  .000000000000D+00 -.200234353542D-07  .610000000000D+02
     .316806000000D+06  .400000000000D+01
24 15 10 21 18  0  0.0 -.671250745654D-05 -.682121026330D-12  .000000000000D+00
     .380000000000D+02  .796875000000D+01  .454483216765D-08 -.239007378867D+01
     .508502125740D-06  .357449438889D-02  .931695103645D-05  .515365258789D+04
     .324000000000D+06 -.353902578354D-07 -.144239334154D+01  .502914190292D-07
     .951675989468D+00  .195937500000D+03  .292328526828D+00 -.805390690612D-08
    -.204651381694D-09  .100000000000D+01  .186700000000D+04  .000000000000D+00
     .240000000000D+01  .000000000000D+00  .279396772385D-08  .380000000000D+02
     .316806000000D+06  .400000000000D+01
25 15 10 21 18  0  0.0 -.557568855584D-04 -.557065504836D-11  .000000000000D+00
     .870000000000D+02  .457812500000D+02  .401695303650D-08  .181799018821D+01
     .237300992012D-05  .466737546958D-02  .652857124805D-05  .515361572647D+04
     .324000000000D+06 -.132247805595D-06 -.375698460960D+00  .149011611938D-07
     .978749715506D+00  .260750000000D+03  .730903358979D+00 -.801997692137D-08
     .235366946835D-09  .100000000000D+01  .186700000000D+04  .000000000000D+00
     .240000000000D+01  .000000000000D+00  .558793544769D-08  .870000000000D+02
     .316806000000D+06  .400000000000D+01
27 15 10 21 18  0  0.0  .293725170195D-04  .306954461848D-11  .000000000000D+00
     .590000000000D+02 -.513437500000D+02  .457304762865D-08 -.593792703495D+00
    -.263191759586D-05  .268708355725D-02  .513345003128D-05  .515370322800D+04
     .324000000000D+06  .931322574615D-08  .666716592085D+00 -.149011611938D-07
     .968947617243D+00  .283687500000D+03  .306469379714D+00 -.829713132311D-08
     .375015620906D-10  .100000000000D+01  .186700000000D+04  .000000000000D+00
     .240000000000D+01  .000000000000D+00  .186264514923D-08  .590000000000D+02
     .316806000000D+06  .400000000000D+01
28 15 10 21 18  0  0.0  .475983601063D-03  .261479726760D-11  .000000000000D+00
     .390000000000D+02  .502500000000D+02  .395052169794D-08  .251511021906D+00
     .262446701527D-05  .198165593902D-01  .693276524544D-05  .515369996452D+04
     .324000000000D+06 -.337138772011D-06 -.303473123068D+00 -.912696123123D-07
     .989560276346D+00  .264218750000D+03 -.165424194061D+01 -.828105922507D-08
     .227509476683D-09  .100000000000D+01  .186700000000D+04  .000000000000D+00
     .240000000000D+01  .000000000000D+00 -.111758708954D-07  .390000000000D+02
     .316806000000D+06  .400000000000D+01
29 15 10 21 18  0  0.0  .640692189336D-03  .193267624127D-11  .000000000000D+00
     .620000000000D+02 -.518125000000D+02  .438089676765D-08  .194829808152D+01
    -.294670462608D-05  .840573571622D-03  .515766441822D-05  .515367671204D+04
     .324000000000D+06  .279396772385D-07  .724852495736D+00 -.745058059692D-08
     .974882215072D+00  .289062500000D+03 -.506815064162D+00 -.814355349740D-08
     .507163982558D-10  .100000000000D+01  .186700000000D+04  .000000000000D+00
     .240000000000D+01  .000000000000D+00 -.102445483208D-07  .620000000000D+02
     .316806000000D+06  .400000000000D+01
30 15 10 21 18  0  0.0  .447221100330D-04  .602540239925D-11  .000000000000D+00
     .590000000000D+02  .293750000000D+02  .450911639423D-08  .283032971411D+01
     .144354999065D-05  .169854017440D-02  .103171914816D-04  .515368679237D+04
     .324000000000D+06 -.111758708954D-07 -.135170128591D+01 -.130385160446D-07
     .954316410309D+00  .177031250000D+03 -.312448616147D+01 -.806962184643D-08
    -.286440502825D-09  .100000000000D+01  .186700000000D+04  .000000000000D+00
     .240000000000D+01  .000000000000D+00  .325962901115D-08  .590000000000D+02
     .316806000000D+06  .400000000000D+01
31 15 10 21 18  0  0.0  .298343133181D-03 -.147792889038D-11  .000000000000D+00
     .920000000000D+02  .273750000000D+02  .405195449445D-08  .291859327892D+01
     .145100057125D-05  .820229714736D-02  .929459929466D-05  .515362090302D+04
     .324000000000D+06 -.186264514923D-08 -.139057802226D+01  .782310962677D-07
     .973392625070D+00  .210062500000D+03 -.513291602918D+00 -.775282293619D-08
    -.273225666660D-09  .100000000000D+01  .186700000000D+04  .000000000000D+00
     .240000000000D+01  .000000000000D+00 -.135041773319D-07  .920000000000D+02
     .316806000000D+06  .400000000000D+01
32 15 10 21 18  0  0.0 -.740867108107D-05  .115960574476D-10  .000000000000D+00
     .500000000000D+02  .329375000000D+02  .495556356197D-08 -.294365605728D+01
     .155158340931D-05  .113521844614D-01  .856071710587D-05  .515366853523D+04
     .324000000000D+06 -.217929482460D-06  .284529357545D+01 -.558793544769D-07
     .947177169662D+00  .205687500000D+03  .153098767212D+00 -.811105214359D-08
     .188936441390D-09  .100000000000D+01  .186700000000D+04  .000000000000D+00
     .240000000000D+01  .000000000000D+00 -.325962901115D-08  .500000000000D+02
     .316806000000D+06  .400000000000D+01
 1 15 10 21 20  0  0.0  .283215194941D-05  .795807864051D-12  .000000000000D+00
     .340000000000D+02 -.569687500000D+02  .447768651362D-08 -.167542170868D+01
    -.314228236675D-05  .476767751388D-02  .994093716145D-05  .515366016388D+04
     .331200000000D+06  .279396772385D-07  .172433836404D+01 -.894069671631D-07
     .962702491646D+00  .187500000000D+03  .493160843660D+00 -.795390274055D-08
     .992898501065D-10  .100000000000D+01  .186700000000D+04  .000000000000D+00
     .240000000000D+01  .000000000000D+00  .512227416039D-08  .340000000000D+02
     .324006000000D+06  .400000000000D+01
 2 15 10 21 20  0  0.0  .593487638980D-03  .125055521494D-11  .000000000000D+00
     .110000000000D+02 -.715625000000D+02  .502770942428D-08 -.109316894772D+01
    -.344403088093D-05  .148805856006D-01  .987760722637D-05  .515365261078D+04
     .331200000000D+06  .277534127235D-06  .168355472421D+01  .275671482086D-06
     .941377278794D+00  .175750000000D+03 -.222300645643D+01 -.829141679936D-08
     .232152527227D-10  .100000000000D+01  .186700000000D+04  .000000000000D+00
     .240000000000D+01  .000000000000D+00 -.204890966415D-07  .110000000000D+02
     .324006000000D+06  .400000000000D+01
 3 15 10 21 20  0  0.0  .190874561667D-04 -.181898940355D-11  .000000000000D+00
     .580000000000D+02  .323437500000D+02  .474305471012D-08  .571084232842D+00
     .164471566677D-05  .481848837808D-03  .896863639355D-05  .515357802391D+04
     .331200000000D+06 -.242143869400D-07  .276527408653D+01 -.111758708954D-07
     .959535285708D+00  .205156250000D+03 -.280838638034D+01 -.812819571483D-08
     .270368404786D-09  .100000000000D+01  .186700000000D+04  .000000000000D+00
     .240000000000D+01  .000000000000D+00  .186264514923D-08  .580000000000D+02
     .324006000000D+06  .400000000000D+01
 4 15 10 21 20  0  0.0 -.354205258191D-04 -.522959453519D-11  .000000000000D+00
     .600000000000D+02 -.503750000000D+02  .499627954367D-08 -.186719517009D+01
    -.267103314400D-05  .119800081011D-01  .931881368160D-05  .515364425278D+04
     .331200000000D+06  .229105353355D-06  .169864448720D+01 -.353902578354D-07
     .940473779125D+00  .184937500000D+03  .111332510324D+01 -.809926593836D-08
     .114647632677D-09  .100000000000D+01  .186700000000D+04  .000000000000D+00
     .240000000000D+01  .000000000000D+00 -.651925802231D-08  .600000000000D+02
     .324006000000D+06  .400000000000D+01
 5 15 10 21 20  0  0.0 -.182743649930D-03  .386535248253D-11  .000000000000D+00
     .730000000000D+02  .275000000000D+02  .509878381338D-08  .134780409409D+01
     .167079269886D-05  .446712074336D-02  .935979187489D-05  .515366409874D+04
     .331200000000D+06  .633299350739D-07  .275630107514D+01  .875443220139D-07
     .946687889396D+00  .191437500000D+03  .447773756123D+00 -.831106047474D-08
     .258939357292D-09  .100000000000D+01  .186700000000D+04  .000000000000D+00
     .240000000000D+01  .000000000000D+00 -.107102096081D-07  .730000000000D+02
     .324006000000D+06  .400000000000D+01
 6 15 10 21 20  0  0.0  .809305347502D-04  .693489710102D-11  .000000000000D+00
     .940000000000D+02 -.757500000000D+02  .452304554586D-08  .726817651147D+00
    -.383518636227D-05  .216063344851D-03  .108312815428D-04  .515356776047D+04
     .331200000000D+06 -.931322574615D-08  .171586990139D+01  .111758708954D-07
     .962562041270D+00  .172562500000D+03  .277783453877D+01 -.799533303771D-08
     .382158775590D-10  .100000000000D+01  .186700000000D+04  .000000000000D+00
     .240000000000D+01  .000000000000D+00  .419095158577D-08  .940000000000D+02
     .324006000000D+06  .400000000000D+01
 7 15 10 21 20  0  0.0  .482351519167D-03 -.909494701773D-12  .000000000000D+00
     .810000000000D+02  .260625000000D+02  .413517224652D-08 -.232155195956D+01
     .120140612125D-05  .900580431335D-02  .980310142040D-05  .515369730186D+04
     .331200000000D+06  .223517417908D-07 -.139902872654D+01 -.139698386192D-06
     .968529469906D+00  .194281250000D+03 -.268782860342D+01 -.782032574796D-08
    -.227509476683D-09  .100000000000D+01  .186700000000D+04  .000000000000D+00
     .240000000000D+01  .000000000000D+00 -.111758708954D-07  .810000000000D+02
     .324006000000D+06  .400000000000D+01
